OBJECT_NAME,OBJECT_ID,EPOCH,MEAN_MOTION,ECCENTRICITY,INCLINATION,RA_OF_ASC_NODE,ARG_OF_PERICENTER,MEAN_ANOMALY,EPHEMERIS_TYPE,CLASSIFICATION_TYPE,NORAD_CAT_ID,ELEMENT_SET_NO,REV_AT_EPOCH,BSTAR,MEAN_MOTION_DOT,MEAN_MOTION_DDOT
QIANFAN-208,2026-153H,2026-07-17T11:48:24.189696,14.25462468,.000847,88.9924,358.7832,176.4000,183.7256,0,U,69807,999,187,.55986E-4,.147E-5,0
QIANFAN-209,2026-153J,2026-07-17T15:14:17.893248,14.17835106,.0006789,88.9919,358.7674,170.6468,189.4848,0,U,69808,999,189,-.8486E+0,-.1610346E-1,0
QIANFAN-210,2026-153K,2026-07-17T16:50:49.699968,14.19014388,.0012582,88.9920,358.7590,186.7524,173.3498,0,U,69809,999,190,-.93736E+0,-.1824286E-1,0
QIANFAN-211,2026-153L,2026-07-17T16:50:02.976576,14.19161705,.0011902,88.9920,358.7589,185.2726,174.8340,0,U,69810,999,190,-.93447E+0,-.1823596E-1,0
QIANFAN-212,2026-153M,2026-07-17T13:21:48.245760,14.21837100,.0007528,88.9920,358.7744,169.0889,191.0467,0,U,69811,999,188,-.88345E+0,-.1812966E-1,0
QIANFAN-213,2026-153N,2026-07-17T11:40:56.277408,14.21585762,.0006786,88.9919,358.7827,174.7343,185.3920,0,U,69812,999,187,-.89107E+0,-.1819392E-1,0
QIANFAN-214,2026-153P,2026-07-17T13:21:17.940096,14.21118816,.0005886,88.9920,358.7745,182.8776,177.2382,0,U,69813,999,188,-.78044E+0,-.1577245E-1,0
QIANFAN-215,2026-153Q,2026-07-17T11:42:39.692160,14.26718733,.0008146,88.9923,358.7824,178.0107,182.1121,0,U,69814,999,187,.44291E-4,.122E-5,0
QIANFAN-216,2026-153R,2026-07-17T15:00:43.617312,14.23815031,.0009144,88.9920,358.7662,158.4305,201.7274,0,U,69815,999,189,-.79989E+0,-.1692622E-1,0
QIANFAN-217,2026-153S,2026-07-17T13:20:29.702976,14.21654994,.0006024,88.9919,358.7741,176.9690,183.1538,0,U,69816,999,188,-.82613E+0,-.167881E-1,0
QIANFAN-218,2026-153T,2026-07-17T13:19:56.032896,14.21704449,.0005765,88.9922,358.7746,176.5582,183.5649,0,U,69817,999,188,-.82509E+0,-.1678278E-1,0
CZ-6A R/B,2026-153U,2026-07-17T17:31:25.931136,14.53449229,.0087021,89.0166,358.6782,78.5255,282.5710,0,U,69818,999,194,.28648E-4,.144E-5,0
STARLINK-37520,2026-154A,2026-07-17T16:00:03.000096,15.80873690,.0001475,53.1581,280.5686,74.6977,320.9553,0,U,69819,999,306,.61837E-4,.11522E-3,0
STARLINK-37553,2026-154B,2026-07-17T16:00:03.000096,15.80875190,.0000959,53.1582,280.5595,80.1033,319.8262,0,U,69820,999,306,-.25579E-4,-.5744E-4,0
STARLINK-37561,2026-154C,2026-07-17T16:00:03.000096,15.80877449,.0001109,53.1583,280.5503,82.8951,321.3059,0,U,69821,999,306,-.24216E-4,-.5476E-4,0
STARLINK-37521,2026-154D,2026-07-17T16:00:03.000096,15.80870421,.0001146,53.1583,280.5417,80.4403,328.0301,0,U,69822,999,306,.70632E-4,.13261E-3,0
STARLINK-37628,2026-154E,2026-07-17T16:00:03.000096,15.80872245,.000113,53.1585,280.5330,75.1598,337.5871,0,U,69823,999,306,.10568E-4,.1387E-4,0
STARLINK-37695,2026-154F,2026-07-17T16:00:03.000096,15.80916756,.0000364,53.1627,280.4515,96.6413,355.5664,0,U,69824,999,306,.11159E-3,.21425E-3,0
STARLINK-37690,2026-154G,2026-07-17T16:00:03.000096,15.80875113,.000116,53.1586,280.5154,77.2268,344.0611,0,U,69825,999,306,-.4398E-4,-.9371E-4,0
STARLINK-37710,2026-154H,2026-07-17T16:00:03.000096,15.80866819,.0001035,53.1586,280.5066,76.5330,349.0277,0,U,69826,999,306,.84545E-4,.16014E-3,0
STARLINK-38031,2026-154J,2026-07-17T16:00:03.000096,15.80862151,.0000948,53.1586,280.4973,71.7156,358.1193,0,U,69827,999,306,.1209E-3,.23215E-3,0
STARLINK-38001,2026-154K,2026-07-17T16:00:03.000096,15.80870635,.0001177,53.1588,280.4886,74.6883,359.4180,0,U,69828,999,306,.27798E-4,.479E-4,0
STARLINK-37622,2026-154L,2026-07-17T16:00:03.000096,15.80871504,.0001149,53.1588,280.4800,71.3079,7.0696,0,U,69829,999,306,-.55347E-5,-.1791E-4,0
STARLINK-37621,2026-154M,2026-07-17T16:00:03.000096,15.80873582,.0000882,53.1588,280.4709,65.2378,17.4064,0,U,69830,999,306,-.20162E-4,-.4675E-4,0
STARLINK-37918,2026-154N,2026-07-17T16:00:03.000096,15.80863934,.0001061,53.1588,280.4619,86.6755,0.2474,0,U,69831,999,306,.85014E-4,.16104E-3,0
STARLINK-37887,2026-154P,2026-07-17T16:00:03.000096,15.80860037,.0000774,53.1588,280.4532,65.8577,25.3372,0,U,69832,999,306,.13776E-3,.26558E-3,0
STARLINK-37624,2026-154Q,2026-07-17T16:00:03.000096,15.80876578,.0001068,53.1588,280.4441,60.9259,34.5349,0,U,69833,999,306,-.55161E-4,-.11573E-3,0
STARLINK-37769,2026-154R,2026-07-17T16:00:03.000096,15.80874093,.0001204,53.1588,280.4352,77.0243,22.7101,0,U,69834,999,306,-.28798E-4,-.6379E-4,0
STARLINK-37247,2026-154S,2026-07-17T16:00:03.000096,15.80961173,.0001418,53.1588,280.4266,52.4182,51.5296,0,U,69835,999,316,-.58657E-3,-.115409E-2,0
STARLINK-37569,2026-154T,2026-07-17T16:00:03.000096,15.80869629,.0001075,53.1589,280.4179,72.6400,35.6376,0,U,69836,999,306,.12058E-4,.1681E-4,0
