QIANFAN-208             
1 69807U 26153H   26198.49194664  .00000147  00000+0  55986-4 0  9994
2 69807  88.9924 358.7832 0008470 176.4000 183.7256 14.25462468  1875
QIANFAN-209             
1 69808U 26153J   26198.63492932 -.01610346  00000+0 -84860+0 0  9999
2 69808  88.9919 358.7674 0006789 170.6468 189.4848 14.17835106  1895
QIANFAN-210             
1 69809U 26153K   26198.70196412 -.01824286  00000+0 -93736+0 0  9994
2 69809  88.9920 358.7590 0012582 186.7524 173.3498 14.19014388  1902
QIANFAN-211             
1 69810U 26153L   26198.70142334 -.01823596  00000+0 -93447+0 0  9992
2 69810  88.9920 358.7589 0011902 185.2726 174.8340 14.19161705  1903
QIANFAN-212             
1 69811U 26153M   26198.55680840 -.01812966  00000+0 -88345+0 0  9995
2 69811  88.9920 358.7744 0007528 169.0889 191.0467 14.21837100  1886
QIANFAN-213             
1 69812U 26153N   26198.48676247 -.01819392  00000+0 -89107+0 0  9991
2 69812  88.9919 358.7827 0006786 174.7343 185.3920 14.21585762  1873
QIANFAN-214             
1 69813U 26153P   26198.55645764 -.01577245  00000+0 -78044+0 0  9996
2 69813  88.9920 358.7745 0005886 182.8776 177.2382 14.21118816  1880
QIANFAN-215             
1 69814U 26153Q   26198.48795940  .00000122  00000+0  44291-4 0  9995
2 69814  88.9923 358.7824 0008146 178.0107 182.1121 14.26718733  1873
QIANFAN-216             
1 69815U 26153R   26198.62550483 -.01692622  00000+0 -79989+0 0  9995
2 69815  88.9920 358.7662 0009144 158.4305 201.7274 14.23815031  1897
QIANFAN-217             
1 69816U 26153S   26198.55589934 -.01678810  00000+0 -82613+0 0  9992
2 69816  88.9919 358.7741 0006024 176.9690 183.1538 14.21654994  1882
QIANFAN-218             
1 69817U 26153T   26198.55550964 -.01678278  00000+0 -82509+0 0  9996
2 69817  88.9922 358.7746 0005765 176.5582 183.5649 14.21704449  1887
CZ-6A R/B               
1 69818U 26153U   26198.73016124  .00000144  00000+0  28648-4 0  9999
2 69818  89.0166 358.6782 0087021  78.5255 282.5710 14.53449229  1945
STARLINK-37520          
1 69819U 26154A   26198.66670139  .00011522  00000+0  61837-4 0  9994
2 69819  53.1581 280.5686 0001475  74.6977 320.9553 15.80873690  3063
STARLINK-37553          
1 69820U 26154B   26198.66670139 -.00005744  00000+0 -25579-4 0  9990
2 69820  53.1582 280.5595 0000959  80.1033 319.8262 15.80875190  3067
STARLINK-37561          
1 69821U 26154C   26198.66670139 -.00005476  00000+0 -24216-4 0  9990
2 69821  53.1583 280.5503 0001109  82.8951 321.3059 15.80877449  3065
STARLINK-37521          
1 69822U 26154D   26198.66670139  .00013261  00000+0  70632-4 0  9993
2 69822  53.1583 280.5417 0001146  80.4403 328.0301 15.80870421  3064
STARLINK-37628          
1 69823U 26154E   26198.66670139  .00001387  00000+0  10568-4 0  9992
2 69823  53.1585 280.5330 0001130  75.1598 337.5871 15.80872245  3063
STARLINK-37695          
1 69824U 26154F   26198.66670139  .00021425  00000+0  11159-3 0  9994
2 69824  53.1627 280.4515 0000364  96.6413 355.5664 15.80916756  3063
STARLINK-37690          
1 69825U 26154G   26198.66670139 -.00009371  00000+0 -43980-4 0  9991
2 69825  53.1586 280.5154 0001160  77.2268 344.0611 15.80875113  3062
STARLINK-37710          
1 69826U 26154H   26198.66670139  .00016014  00000+0  84545-4 0  9994
2 69826  53.1586 280.5066 0001035  76.5330 349.0277 15.80866819  3064
STARLINK-38031          
1 69827U 26154J   26198.66670139  .00023215  00000+0  12090-3 0  9991
2 69827  53.1586 280.4973 0000948  71.7156 358.1193 15.80862151  3069
STARLINK-38001          
1 69828U 26154K   26198.66670139  .00004790  00000+0  27798-4 0  9991
2 69828  53.1588 280.4886 0001177  74.6883 359.4180 15.80870635  3065
STARLINK-37622          
1 69829U 26154L   26198.66670139 -.00001791  00000+0 -55347-5 0  9994
2 69829  53.1588 280.4800 0001149  71.3079   7.0696 15.80871504  3066
STARLINK-37621          
1 69830U 26154M   26198.66670139 -.00004675  00000+0 -20162-4 0  9996
2 69830  53.1588 280.4709 0000882  65.2378  17.4064 15.80873582  3065
STARLINK-37918          
1 69831U 26154N   26198.66670139  .00016104  00000+0  85014-4 0  9992
2 69831  53.1588 280.4619 0001061  86.6755   0.2474 15.80863934  3067
STARLINK-37887          
1 69832U 26154P   26198.66670139  .00026558  00000+0  13776-3 0  9992
2 69832  53.1588 280.4532 0000774  65.8577  25.3372 15.80860037  3069
STARLINK-37624          
1 69833U 26154Q   26198.66670139 -.00011573  00000+0 -55161-4 0  9991
2 69833  53.1588 280.4441 0001068  60.9259  34.5349 15.80876578  3062
STARLINK-37769          
1 69834U 26154R   26198.66670139 -.00006379  00000+0 -28798-4 0  9996
2 69834  53.1588 280.4352 0001204  77.0243  22.7101 15.80874093  3063
STARLINK-37247          
1 69835U 26154S   26198.66670139 -.00115409  00000+0 -58657-3 0  9998
2 69835  53.1588 280.4266 0001418  52.4182  51.5296 15.80961173  3166
STARLINK-37569          
1 69836U 26154T   26198.66670139  .00001681  00000+0  12058-4 0  9999
2 69836  53.1589 280.4179 0001075  72.6400  35.6376 15.80869629  3061
